start=new Date('2022-10-25T00:00:00.000Z').valueOf();
sats=[{"REV_AT_EPOCH":"13346","OBJECT_ID":"2020-035AY","APOAPSIS":"548.251","EPHEMERIS_TYPE":"0","MEAN_MOTION":"15.06377543","DECAY_DATE":null,"LAUNCH_DATE":"2020-06-04","ECCENTRICITY":"0.00013980","TLE_LINE1":"1 45703U 20035AY  22297.72305651 -.00003986  00000-0 -24900-3 0  9996","INCLINATION":"53.0519","TIME_SYSTEM":"UTC","MEAN_ANOMALY":"257.0938","SEMIMAJOR_AXIS":"6925.417","REF_FRAME":"TEME","CLASSIFICATION_TYPE":"U","MEAN_ELEMENT_THEORY":"SGP4","GP_ID":"216068725","PERIAPSIS":"546.314","CENTER_NAME":"EARTH","BSTAR":"-0.00024900000000","MEAN_MOTION_DOT":"-0.00003986","NORAD_CAT_ID":"45703","OBJECT_NAME":"STARLINK-1407","RCS_SIZE":"LARGE","COUNTRY_CODE":"US","OBJECT_TYPE":"PAYLOAD","MEAN_MOTION_DDOT":"0.0000000000000","ARG_OF_PERICENTER":"103.0207","RA_OF_ASC_NODE":"167.1442","ELEMENT_SET_NO":"999","FILE":"3631857","PERIOD":"95.594","EPOCH":"2022-10-24T17:21:12.082464","TLE_LINE2":"2 45703  53.0519 167.1442 0001398 103.0207 257.0938 15.06377543133465","SITE":"AFETR"},{"MEAN_MOTION_DOT":"-0.00001406","OBJECT_NAME":"STARLINK-1409","NORAD_CAT_ID":"45704","RCS_SIZE":"LARGE","COUNTRY_CODE":"US","OBJECT_TYPE":"PAYLOAD","MEAN_MOTION_DDOT":"0.0000000000000","ARG_OF_PERICENTER":"84.3511","RA_OF_ASC_NODE":"197.0265","ELEMENT_SET_NO":"999","FILE":"3631857","PERIOD":"95.593","EPOCH":"2022-10-24T17:58:18.835968","TLE_LINE2":"2 45704  53.0532 197.0265 0001051  84.3511 275.7597 15.06386991133051","SITE":"AFETR","REV_AT_EPOCH":"13305","OBJECT_ID":"2020-035AZ","APOAPSIS":"547.981","EPHEMERIS_TYPE":"0","MEAN_MOTION":"15.06386991","LAUNCH_DATE":"2020-06-04","DECAY_DATE":null,"ECCENTRICITY":"0.00010510","TLE_LINE1":"1 45704U 20035AZ  22297.74882912 -.00001406  00000-0 -75566-4 0  9999","INCLINATION":"53.0532","TIME_SYSTEM":"UTC","MEAN_ANOMALY":"275.7597","REF_FRAME":"TEME","SEMIMAJOR_AXIS":"6925.388","CLASSIFICATION_TYPE":"U","MEAN_ELEMENT_THEORY":"SGP4","GP_ID":"216069473","PERIAPSIS":"546.526","CENTER_NAME":"EARTH","BSTAR":"-0.00007556600000"},{"REV_AT_EPOCH":"13299","OBJECT_ID":"2020-035BA","APOAPSIS":"548.200","EPHEMERIS_TYPE":"0","MEAN_MOTION":"15.06395549","DECAY_DATE":null,"LAUNCH_DATE":"2020-06-04","INCLINATION":"53.0541","ECCENTRICITY":"0.00014050","TLE_LINE1":"1 45705U 20035BA  22297.44383493  .00000297  00000-0  38818-4 0  9991","CLASSIFICATION_TYPE":"U","MEAN_ELEMENT_THEORY":"SGP4","MEAN_ANOMALY":"280.6326","TIME_SYSTEM":"UTC","REF_FRAME":"TEME","SEMIMAJOR_AXIS":"6925.362","GP_ID":"216036682","PERIAPSIS":"546.254","CENTER_NAME":"EARTH","BSTAR":"0.00003881800000","OBJECT_NAME":"STARLINK-1410","NORAD_CAT_ID":"45705","RCS_SIZE":"LARGE","MEAN_MOTION_DOT":"0.00000297","COUNTRY_CODE":"US","OBJECT_TYPE":"PAYLOAD","ARG_OF_PERICENTER":"79.4821","MEAN_MOTION_DDOT":"0.0000000000000","RA_OF_ASC_NODE":"198.3748","ELEMENT_SET_NO":"999","EPOCH":"2022-10-24T10:39:07.337952","FILE":"3631438","PERIOD":"95.592","SITE":"AFETR","TLE_LINE2":"2 45705  53.0541 198.3748 0001405  79.4821 280.6326 15.06395549132990"},{"OBJECT_TYPE":"PAYLOAD","ARG_OF_PERICENTER":"118.5760","MEAN_MOTION_DDOT":"0.0000000000000","NORAD_CAT_ID":"45706","OBJECT_NAME":"STARLINK-1411","RCS_SIZE":"LARGE","MEAN_MOTION_DOT":"-0.00002420","COUNTRY_CODE":"US","SITE":"AFETR","TLE_LINE2":"2 45706  53.0543 167.5210 0001413 118.5760 241.5371 15.06385289133448","RA_OF_ASC_NODE":"167.5210","ELEMENT_SET_NO":"999","EPOCH":"2022-10-24T15:13:48.779904","FILE":"3631857","PERIOD":"95.593","LAUNCH_DATE":"2020-06-04","DECAY_DATE":null,"INCLINATION":"53.0543","ECCENTRICITY":"0.00014130","TLE_LINE1":"1 45706U 20035BB  22297.63459236 -.00002420  00000-0 -14370-3 0  9990","OBJECT_ID":"2020-035BB","REV_AT_EPOCH":"13344","APOAPSIS":"548.237","EPHEMERIS_TYPE":"0","MEAN_MOTION":"15.06385289","PERIAPSIS":"546.280","CENTER_NAME":"EARTH","BSTAR":"-0.00014370000000","CLASSIFICATION_TYPE":"U","MEAN_ELEMENT_THEORY":"SGP4","MEAN_ANOMALY":"241.5371","TIME_SYSTEM":"UTC","SEMIMAJOR_AXIS":"6925.394","REF_FRAME":"TEME","GP_ID":"216067974"},{"MEAN_MOTION_DOT":"-0.00002122","OBJECT_NAME":"STARLINK-1412","NORAD_CAT_ID":"45707","RCS_SIZE":"LARGE","COUNTRY_CODE":"US","OBJECT_TYPE":"PAYLOAD","MEAN_MOTION_DDOT":"0.0000000000000","ARG_OF_PERICENTER":"110.6940","RA_OF_ASC_NODE":"166.9636","ELEMENT_SET_NO":"999","FILE":"3631857","PERIOD":"95.594","EPOCH":"2022-10-24T18:19:35.628384","TLE_LINE2":"2 45707  53.0547 166.9636 0001234 110.6940 249.4181 15.06377476133470","SITE":"AFETR","OBJECT_ID":"2020-035BC","REV_AT_EPOCH":"13347","APOAPSIS":"548.137","EPHEMERIS_TYPE":"0","MEAN_MOTION":"15.06377476","LAUNCH_DATE":"2020-06-04","DECAY_DATE":null,"ECCENTRICITY":"0.00012340","TLE_LINE1":"1 45707U 20035BC  22297.76360681 -.00002122  00000-0 -12371-3 0  9998","INCLINATION":"53.0547","TIME_SYSTEM":"UTC","MEAN_ANOMALY":"249.4181","SEMIMAJOR_AXIS":"6925.418","REF_FRAME":"TEME","CLASSIFICATION_TYPE":"U","MEAN_ELEMENT_THEORY":"SGP4","GP_ID":"216069223","PERIAPSIS":"546.428","CENTER_NAME":"EARTH","BSTAR":"-0.00012371000000"},{"OBJECT_NAME":"STARLINK-1418","NORAD_CAT_ID":"45708","RCS_SIZE":"LARGE","MEAN_MOTION_DOT":"0.00000079","COUNTRY_CODE":"US","OBJECT_TYPE":"PAYLOAD","ARG_OF_PERICENTER":"104.4186","MEAN_MOTION_DDOT":"0.0000000000000","RA_OF_ASC_NODE":"167.3637","ELEMENT_SET_NO":"999","EPOCH":"2022-10-24T16:06:53.525376","FILE":"3631857","PERIOD":"95.593","SITE":"AFETR","TLE_LINE2":"2 45708  53.0560 167.3637 0001284 104.4186 255.6945 15.06385110133460","OBJECT_ID":"2020-035BD","REV_AT_EPOCH":"13346","APOAPSIS":"548.148","EPHEMERIS_TYPE":"0","MEAN_MOTION":"15.06385110","DECAY_DATE":null,"LAUNCH_DATE":"2020-06-04","INCLINATION":"53.0560","ECCENTRICITY":"0.00012840","TLE_LINE1":"1 45708U 20035BD  22297.67145284  .00000079  00000-0  24220-4 0  9993","CLASSIFICATION_TYPE":"U","MEAN_ELEMENT_THEORY":"SGP4","MEAN_ANOMALY":"255.6945","TIME_SYSTEM":"UTC","REF_FRAME":"TEME","SEMIMAJOR_AXIS":"6925.394","GP_ID":"216068975","PERIAPSIS":"546.370","CENTER_NAME":"EARTH","BSTAR":"0.00002422000000"},{"LAUNCH_DATE":"2020-06-04","DECAY_DATE":null,"INCLINATION":"53.0549","ECCENTRICITY":"0.00014900","TLE_LINE1":"1 45709U 20035BE  22297.77465125  .00000296  00000-0  38765-4 0  9994","REV_AT_EPOCH":"13343","OBJECT_ID":"2020-035BE","APOAPSIS":"548.257","EPHEMERIS_TYPE":"0","MEAN_MOTION":"15.06396263","PERIAPSIS":"546.193","CENTER_NAME":"EARTH","BSTAR":"0.00003876500000","CLASSIFICATION_TYPE":"U","MEAN_ELEMENT_THEORY":"SGP4","TIME_SYSTEM":"UTC","MEAN_ANOMALY":"257.1315","REF_FRAME":"TEME","SEMIMAJOR_AXIS":"6925.360","GP_ID":"216068224","OBJECT_TYPE":"PAYLOAD","ARG_OF_PERICENTER":"102.9840","MEAN_MOTION_DDOT":"0.0000000000000","OBJECT_NAME":"STARLINK-1421","NORAD_CAT_ID":"45709","RCS_SIZE":"LARGE","MEAN_MOTION_DOT":"0.00000296","COUNTRY_CODE":"US","SITE":"AFETR","TLE_LINE2":"2 45709  53.0549 166.9150 0001490 102.9840 257.1315 15.06396263133438","RA_OF_ASC_NODE":"166.9150","ELEMENT_SET_NO":"999","EPOCH":"2022-10-24T18:35:29.868000","FILE":"3631857","PERIOD":"95.592"},{"MEAN_ELEMENT_THEORY":"SGP4","CLASSIFICATION_TYPE":"U","SEMIMAJOR_AXIS":"6925.410","REF_FRAME":"TEME","TIME_SYSTEM":"UTC","MEAN_ANOMALY":"251.0920","GP_ID":"216068474","PERIAPSIS":"546.307","BSTAR":"-0.00010083000000","CENTER_NAME":"EARTH","APOAPSIS":"548.242","REV_AT_EPOCH":"13347","OBJECT_ID":"2020-035BF","MEAN_MOTION":"15.06379999","EPHEMERIS_TYPE":"0","LAUNCH_DATE":"2020-06-04","DECAY_DATE":null,"INCLINATION":"53.0539","TLE_LINE1":"1 45710U 20035BF  22297.77097947 -.00001782  00000-0 -10083-3 0  9994","ECCENTRICITY":"0.00013970","ELEMENT_SET_NO":"999","RA_OF_ASC_NODE":"166.9308","EPOCH":"2022-10-24T18:30:12.626208","PERIOD":"95.593","FILE":"3631857","SITE":"AFETR","TLE_LINE2":"2 45710  53.0539 166.9308 0001397 109.0220 251.0920 15.06379999133476","RCS_SIZE":"LARGE","OBJECT_NAME":"STARLINK-1423","NORAD_CAT_ID":"45710","MEAN_MOTION_DOT":"-0.00001782","COUNTRY_CODE":"US","OBJECT_TYPE":"PAYLOAD","ARG_OF_PERICENTER":"109.0220","MEAN_MOTION_DDOT":"0.0000000000000"},{"MEAN_MOTION_DDOT":"0.0000000000000","ARG_OF_PERICENTER":"108.0061","OBJECT_TYPE":"PAYLOAD","COUNTRY_CODE":"US","MEAN_MOTION_DOT":"-0.00001041","RCS_SIZE":"LARGE","NORAD_CAT_ID":"45711","OBJECT_NAME":"STARLINK-1433","TLE_LINE2":"2 45711  53.0533 167.2965 0001553 108.0061 252.1097 15.06398040133453","SITE":"AFETR","PERIOD":"95.592","FILE":"3631857","EPOCH":"2022-10-24T16:28:05.938176","ELEMENT_SET_NO":"999","RA_OF_ASC_NODE":"167.2965","TLE_LINE1":"1 45711U 20035BG  22297.68617984 -.00001041  00000-0 -51015-4 0  9993","ECCENTRICITY":"0.00015530","INCLINATION":"53.0533","DECAY_DATE":null,"LAUNCH_DATE":"2020-06-04","MEAN_MOTION":"15.06398040","EPHEMERIS_TYPE":"0","APOAPSIS":"548.295","REV_AT_EPOCH":"13345","OBJECT_ID":"2020-035BG","BSTAR":"-0.00005101500000","CENTER_NAME":"EARTH","PERIAPSIS":"546.144","GP_ID":"216068726","REF_FRAME":"TEME","SEMIMAJOR_AXIS":"6925.355","TIME_SYSTEM":"UTC","MEAN_ANOMALY":"252.1097","MEAN_ELEMENT_THEORY":"SGP4","CLASSIFICATION_TYPE":"U"},{"MEAN_ELEMENT_THEORY":"SGP4","CLASSIFICATION_TYPE":"U","REF_FRAME":"TEME","SEMIMAJOR_AXIS":"6925.379","MEAN_ANOMALY":"257.8825","TIME_SYSTEM":"UTC","GP_ID":"216069474","PERIAPSIS":"546.321","BSTAR":"0.00006071000000","CENTER_NAME":"EARTH","APOAPSIS":"548.167","OBJECT_ID":"2020-035BH","REV_AT_EPOCH":"13345","MEAN_MOTION":"15.06390108","EPHEMERIS_TYPE":"0","DECAY_DATE":null,"LAUNCH_DATE":"2020-06-04","INCLINATION":"53.0541","TLE_LINE1":"1 45712U 20035BH  22297.61616140  .00000623  00000-0  60710-4 0  9995","ECCENTRICITY":"0.00013330","ELEMENT_SET_NO":"999","RA_OF_ASC_NODE":"167.6132","EPOCH":"2022-10-24T14:47:16.344960","PERIOD":"95.593","FILE":"3631857","SITE":"AFETR","TLE_LINE2":"2 45712  53.0541 167.6132 0001333 102.2313 257.8825 15.06390108133453","RCS_SIZE":"LARGE","NORAD_CAT_ID":"45712","OBJECT_NAME":"STARLINK-1434","MEAN_MOTION_DOT":"0.00000623","COUNTRY_CODE":"US","OBJECT_TYPE":"PAYLOAD","ARG_OF_PERICENTER":"102.2313","MEAN_MOTION_DDOT":"0.0000000000000"}];
